#aV2009  3  1  0  0   .00000000      96 DD+AD WGS84 FIT  NGA
## 1521       .00000000   900.00000000 54891  .0000000000000
+   31     2  3  4  5  6  7  8  9 10 11 12 13 14 15 16 17 18
+         19 20 21 22 23 24 25 26 27 28 29 30 31 32  0  0  0
+          0  0  0  0  0  0  0  0  0  0  0  0  0  0  0  0  0
+          0  0  0  0  0  0  0  0  0  0  0  0  0  0  0  0  0
+          0  0  0  0  0  0  0  0  0  0  0  0  0  0  0  0  0
++         0  0  0  0  0  0  0  0  0  0  0  0  0  0  0  0  0
++         0  0  0  0  0  0  0  0  0  0  0  0  0  0  0  0  0
++         0  0  0  0  0  0  0  0  0  0  0  0  0  0  0  0  0
++         0  0  0  0  0  0  0  0  0  0  0  0  0  0  0  0  0
++         0  0  0  0  0  0  0  0  0  0  0  0  0  0  0  0  0
%c cc cc ccc ccc cccc cccc cccc cccc ccccc ccccc ccccc ccccc
%c cc cc ccc ccc cccc cccc cccc cccc ccccc ccccc ccccc ccccc
%f  0.0000000  0.000000000  0.00000000000  0.000000000000000
%f  0.0000000  0.000000000  0.00000000000  0.000000000000000
%i    0    0    0    0      0      0      0      0         0
%i    0    0    0    0      0      0      0      0         0
/*      NGA, ST. LOUIS,MO.                                  
/*   EPHEMERIS COMPUTED FROM  3 DAYS OF DATA                
/* CCCCCCCCCCCCCCCCCCCCCCCCCCCCCCCCCCCCCCCCCCCCCCCCCCCCCCCCC
/* CCCCCCCCCCCCCCCCCCCCCCCCCCCCCCCCCCCCCCCCCCCCCCCCCCCCCCCCC
*  2009  3  1  5 30   .00000000                                                 
P  2 -21623.670028  13255.011132   7038.544685    155.974429                    
V  2  -9887.583579   -244.004711 -29821.305624      -.010213                    
P  3  10470.257906 -21043.869011  11719.905981    359.428386                    
V  3   2361.529965  15785.917780  25933.501717       .051728                    
P  4 -25825.582830   4676.394993  -5341.816043   -354.263563                    
V  4   5247.261833  -4968.568632 -30098.950341      -.142165                    
P  5  10939.503203  20091.316442 -13894.021211     -2.403312                    
V  5 -15348.991930  -7991.355129 -24036.494359      -.038661                    
P  6  13794.629198 -17059.727427  15136.156711      9.129533                    
V  6   -202.880940  19148.362045  22077.158566       .199930                    
P  7 -14219.153784  -9825.390833  20181.003205     22.201441                    
V  7  23879.925736  -9318.645594  12171.213729      -.004074                    
P  8 -24066.871841  -1192.265141  11661.720317   -192.667438                    
V  8  13756.802110  -5281.007618  27241.514259      -.014941                    
P  9  -3449.305903  16627.988504 -21041.910481     43.005336                    
V  9 -23813.493427   8418.451499  10998.882347       .020049                    
P 10  -9253.137698  12064.068504  21609.715229    -11.923455                    
V 10 -20796.054882 -18502.672416   1747.250383      -.006190                    
P 11    -12.328300 -18300.486221 -19355.056296      6.045219                    
V 11  22038.816511 -11025.463795  10875.798487      -.011238                    
P 12   7582.152296  20483.634456 -15113.344691   -311.119555                    
V 12 -15745.631191 -11265.169987 -22942.855982       .040548                    
P 13  -6807.371735 -18914.426468  17245.773389    290.113406                    
V 13   6412.339966 -21132.800200 -20490.788287       .012248                    
P 14  14900.189206   -700.907272 -21843.752855   -147.437089                    
V 14  -5911.475132  27330.898475  -4986.199523       .054699                    
P 15  -6674.730725  25504.543252   2994.601873   -263.077451                    
V 15  -2250.178691  -4235.825031  31406.205147      -.050119                    
P 16  14682.057575  -6481.056172  21265.235232     71.058533                    
V 16  19534.156393  18341.529126  -7695.143989      -.028958                    
P 17 -15082.989808  -2071.352698 -21701.535430     48.595729                    
V 17   5455.649630 -27158.341724  -1381.510054       .013146                    
P 18  20596.387117  16933.588131  -2077.012317    -78.951308                    
V 18     41.297858   4188.007426  30981.012317       .035333                    
P 19   6929.932710 -25504.579974    132.220261     31.543319                    
V 19   2990.618586    897.631934  31845.429548      -.007179                    
P 20  -9961.040231 -20800.691466 -13343.154968     89.435814                    
V 20  14566.782744   8683.615535 -24598.524585      -.010680                    
P 21  18673.547850   7733.123668  17765.053201     26.712478                    
V 21 -20373.258210   8352.396465  17391.999003      -.018622                    
P 22  22030.384979   8569.661102 -12017.437051    204.332673                    
V 22   9406.929679  12669.008676  25883.850154      -.004875                    
P 23  -1158.637809 -24904.281058   8705.906330    387.727350                    
V 23   4629.927056 -10492.376013 -29499.268030       .005746                    
P 24   3262.425432  15173.944312  21694.319778    169.391224                    
V 24 -26169.144051   7625.297025  -1143.750021       .031160                    
P 25  -7060.978689 -13490.699688  22113.962049    272.586316                    
V 25  24676.020880 -11462.787601   1091.256397       .239075                    
P 26 -10446.556343  22876.174397   7140.348860     47.973894                    
V 26    230.950243 -10124.276633  31049.477385       .026910                    
P 27 -24343.119966  10653.267494   -761.080221     28.574614                    
V 27  -2551.908477  -1518.935562  31957.543552       .031046                    
P 28 -22067.237870 -10959.831457  -9906.965763    -23.593500                    
V 28  -8130.043176 -10494.399600  28185.209766       .000313                    
P 29   7195.327370  19961.915286  16102.526610     -5.695808                    
V 29  -6110.680555  19385.918529 -21405.205319       .035273                    
P 30  17390.075068  19316.842042  -6038.841831    129.439854                    
V 30  -7433.627025  -2220.003045 -30238.704429       .024710                    
P 31  25534.337497  -6983.804989  -2705.880891    -53.232919                    
V 31  -2690.889021   3452.111900 -31658.596189      -.012559                    
P 32  -1653.504281 -19369.051324 -17800.823916    290.971676                    
V 32  17353.665268  15654.929082 -18001.124060      -.036430                    
EOF
